start=new Date('2022-06-22T00:00:00.000Z').valueOf();
sats=[{"EPOCH":"2022-06-21T20:39:46.149984","MEAN_ANOMALY":"287.8949","NORAD_CAT_ID":"48695","SEMIMAJOR_AXIS":"6925.395","OBJECT_TYPE":"PAYLOAD","RCS_SIZE":"LARGE","INCLINATION":"53.0576","RA_OF_ASC_NODE":"57.7148","ELEMENT_SET_NO":"999","PERIOD":"95.593","MEAN_MOTION":"15.06384750","TLE_LINE2":"2 48695  53.0576  57.7148 0001529  72.2207 287.8949 15.06384750 60595","FILE":"3499098","LAUNCH_DATE":"2021-05-26","OBJECT_ID":"2021-044BK","ECCENTRICITY":"0.00015290","TLE_LINE1":"1 48695U 21044BK  22172.86095081 -.00001063  00000-0 -52471-4 0  9999","CLASSIFICATION_TYPE":"U","GP_ID":"206557303","CENTER_NAME":"EARTH","REF_FRAME":"TEME","MEAN_MOTION_DOT":"-0.00001063","REV_AT_EPOCH":"6059","MEAN_MOTION_DDOT":"0.0000000000000","MEAN_ELEMENT_THEORY":"SGP4","EPHEMERIS_TYPE":"0","COUNTRY_CODE":"US","ARG_OF_PERICENTER":"72.2207","SITE":"AFETR","PERIAPSIS":"546.201","DECAY_DATE":null,"APOAPSIS":"548.319","OBJECT_NAME":"STARLINK-2616","BSTAR":"-0.00005247100000","TIME_SYSTEM":"UTC"},{"TLE_LINE1":"1 48696U 21044BL  22172.85125996  .00000198  00000-0  32202-4 0  9994","CLASSIFICATION_TYPE":"U","LAUNCH_DATE":"2021-05-26","FILE":"3499203","OBJECT_ID":"2021-044BL","ECCENTRICITY":"0.00016340","PERIOD":"95.592","ELEMENT_SET_NO":"999","TLE_LINE2":"2 48696  53.0551  62.7458 0001634  70.0628 290.0537 15.06394768 59620","MEAN_MOTION":"15.06394768","EPOCH":"2022-06-21T20:25:48.860544","MEAN_ANOMALY":"290.0537","OBJECT_TYPE":"PAYLOAD","RCS_SIZE":"LARGE","INCLINATION":"53.0551","RA_OF_ASC_NODE":"62.7458","SEMIMAJOR_AXIS":"6925.365","NORAD_CAT_ID":"48696","OBJECT_NAME":"STARLINK-2753","BSTAR":"0.00003220200000","APOAPSIS":"548.361","DECAY_DATE":null,"PERIAPSIS":"546.098","TIME_SYSTEM":"UTC","MEAN_ELEMENT_THEORY":"SGP4","EPHEMERIS_TYPE":"0","SITE":"AFETR","COUNTRY_CODE":"US","ARG_OF_PERICENTER":"70.0628","CENTER_NAME":"EARTH","GP_ID":"206582243","MEAN_MOTION_DOT":"0.00000198","REV_AT_EPOCH":"5962","MEAN_MOTION_DDOT":"0.0000000000000","REF_FRAME":"TEME"},{"EPHEMERIS_TYPE":"0","MEAN_ELEMENT_THEORY":"SGP4","ARG_OF_PERICENTER":"64.6263","COUNTRY_CODE":"US","SITE":"AFETR","GP_ID":"206580498","CENTER_NAME":"EARTH","REF_FRAME":"TEME","MEAN_MOTION_DDOT":"0.0000000000000","REV_AT_EPOCH":"5962","MEAN_MOTION_DOT":"0.00000212","PERIAPSIS":"546.165","DECAY_DATE":null,"APOAPSIS":"548.318","BSTAR":"0.00003312300000","OBJECT_NAME":"STARLINK-2715","TIME_SYSTEM":"UTC","ELEMENT_SET_NO":"999","PERIOD":"95.593","TLE_LINE2":"2 48697  53.0556  62.5844 0001555  64.6263 295.4887 15.06390891 59629","MEAN_MOTION":"15.06390891","MEAN_ANOMALY":"295.4887","EPOCH":"2022-06-21T21:08:16.822464","NORAD_CAT_ID":"48697","SEMIMAJOR_AXIS":"6925.376","RA_OF_ASC_NODE":"62.5844","INCLINATION":"53.0556","OBJECT_TYPE":"PAYLOAD","RCS_SIZE":"LARGE","TLE_LINE1":"1 48697U 21044BM  22172.88075026  .00000212  00000-0  33123-4 0  9996","CLASSIFICATION_TYPE":"U","FILE":"3499203","LAUNCH_DATE":"2021-05-26","OBJECT_ID":"2021-044BM","ECCENTRICITY":"0.00015550"},{"TLE_LINE2":"2 48879  97.5133 303.4484 0001382  95.9072 310.7498 15.02913363  1307","MEAN_MOTION":"15.02913363","ELEMENT_SET_NO":"999","PERIOD":"95.814","SEMIMAJOR_AXIS":"6936.055","NORAD_CAT_ID":"48879","RCS_SIZE":"LARGE","OBJECT_TYPE":"PAYLOAD","RA_OF_ASC_NODE":"303.4484","INCLINATION":"97.5133","EPOCH":"2022-06-22T00:00:02.000160","MEAN_ANOMALY":"310.7498","CLASSIFICATION_TYPE":"U","TLE_LINE1":"1 48879U 21059A   22173.00002315 -.00052141  00000-0 -39111-2 0  9991","ECCENTRICITY":"0.00013820","OBJECT_ID":"2021-059A","FILE":"3499203","LAUNCH_DATE":"2021-06-30","COUNTRY_CODE":"US","ARG_OF_PERICENTER":"95.9072","SITE":"AFETR","MEAN_ELEMENT_THEORY":"SGP4","EPHEMERIS_TYPE":"0","REF_FRAME":"TEME","MEAN_MOTION_DOT":"-0.00052141","REV_AT_EPOCH":"130","MEAN_MOTION_DDOT":"0.0000000000000","GP_ID":"206583022","CENTER_NAME":"EARTH","TIME_SYSTEM":"UTC","APOAPSIS":"558.879","DECAY_DATE":null,"PERIAPSIS":"556.962","OBJECT_NAME":"STARLINK-3003","BSTAR":"-0.00391110000000"},{"LAUNCH_DATE":"2021-06-30","FILE":"3499203","OBJECT_ID":"2021-059B","ECCENTRICITY":"0.00014850","TLE_LINE1":"1 48880U 21059B   22173.00002315 -.00052262  00000-0 -39200-2 0  9996","CLASSIFICATION_TYPE":"U","EPOCH":"2022-06-22T00:00:02.000160","MEAN_ANOMALY":"305.5651","RCS_SIZE":"LARGE","OBJECT_TYPE":"PAYLOAD","INCLINATION":"97.5133","RA_OF_ASC_NODE":"303.4453","SEMIMAJOR_AXIS":"6936.050","NORAD_CAT_ID":"48880","PERIOD":"95.814","ELEMENT_SET_NO":"999","MEAN_MOTION":"15.02915061","TLE_LINE2":"2 48880  97.5133 303.4453 0001485 110.3755 305.5651 15.02915061  1309","OBJECT_NAME":"STARLINK-3004","BSTAR":"-0.00392000000000","APOAPSIS":"558.945","DECAY_DATE":null,"PERIAPSIS":"556.885","TIME_SYSTEM":"UTC","CENTER_NAME":"EARTH","GP_ID":"206582013","MEAN_MOTION_DOT":"-0.00052262","REV_AT_EPOCH":"130","MEAN_MOTION_DDOT":"0.0000000000000","REF_FRAME":"TEME","MEAN_ELEMENT_THEORY":"SGP4","EPHEMERIS_TYPE":"0","SITE":"AFETR","COUNTRY_CODE":"US","ARG_OF_PERICENTER":"110.3755"},{"MEAN_ELEMENT_THEORY":"SGP4","EPHEMERIS_TYPE":"0","COUNTRY_CODE":"US","ARG_OF_PERICENTER":"64.4131","SITE":"AFETR","GP_ID":"206582263","CENTER_NAME":"EARTH","REF_FRAME":"TEME","MEAN_MOTION_DOT":"0.00036263","REV_AT_EPOCH":"130","MEAN_MOTION_DDOT":"0.0000000000000","APOAPSIS":"559.193","DECAY_DATE":null,"PERIAPSIS":"556.714","OBJECT_NAME":"STARLINK-3005","BSTAR":"0.00269440000000","TIME_SYSTEM":"UTC","ELEMENT_SET_NO":"999","PERIOD":"95.815","MEAN_MOTION":"15.02902523","TLE_LINE2":"2 48881  97.5108 303.4833 0001787  64.4131  14.5184 15.02902523  1303","EPOCH":"2022-06-22T00:00:02.000160","MEAN_ANOMALY":"14.5184","SEMIMAJOR_AXIS":"6936.089","NORAD_CAT_ID":"48881","RCS_SIZE":"LARGE","OBJECT_TYPE":"PAYLOAD","INCLINATION":"97.5108","RA_OF_ASC_NODE":"303.4833","TLE_LINE1":"1 48881U 21059C   22173.00002315  .00036263  00000-0  26944-2 0  9999","CLASSIFICATION_TYPE":"U","FILE":"3499203","LAUNCH_DATE":"2021-06-30","OBJECT_ID":"2021-059C","ECCENTRICITY":"0.00017870"},{"TIME_SYSTEM":"UTC","DECAY_DATE":null,"APOAPSIS":"574.153","PERIAPSIS":"569.942","OBJECT_NAME":"STARLINK-3096","BSTAR":"-0.00008911100000","REF_FRAME":"TEME","MEAN_MOTION_DOT":"-0.00001156","REV_AT_EPOCH":"4372","MEAN_MOTION_DDOT":"0.0000000000000","GP_ID":"206582798","CENTER_NAME":"EARTH","COUNTRY_CODE":"US","ARG_OF_PERICENTER":"265.5642","SITE":"AFWTR","MEAN_ELEMENT_THEORY":"SGP4","EPHEMERIS_TYPE":"0","ECCENTRICITY":"0.00030300","OBJECT_ID":"2021-082B","FILE":"3499203","LAUNCH_DATE":"2021-09-14","CLASSIFICATION_TYPE":"U","TLE_LINE1":"1 49131U 21082B   22172.86405768 -.00001156  00000-0 -89111-4 0  9998","SEMIMAJOR_AXIS":"6950.183","NORAD_CAT_ID":"49131","RCS_SIZE":"LARGE","OBJECT_TYPE":"PAYLOAD","RA_OF_ASC_NODE":"75.4972","INCLINATION":"69.9978","EPOCH":"2022-06-21T20:44:14.583552","MEAN_ANOMALY":"94.5171","MEAN_MOTION":"14.98333360","TLE_LINE2":"2 49131  69.9978  75.4972 0003030 265.5642  94.5171 14.98333360 43721","ELEMENT_SET_NO":"999","PERIOD":"96.107"},{"CENTER_NAME":"EARTH","GP_ID":"206582551","REV_AT_EPOCH":"4273","MEAN_MOTION_DOT":"-0.00002858","MEAN_MOTION_DDOT":"0.0000000000000","REF_FRAME":"TEME","MEAN_ELEMENT_THEORY":"SGP4","EPHEMERIS_TYPE":"0","SITE":"AFWTR","COUNTRY_CODE":"US","ARG_OF_PERICENTER":"270.3359","OBJECT_NAME":"STARLINK-3090","BSTAR":"-0.00023171000000","DECAY_DATE":null,"APOAPSIS":"573.983","PERIAPSIS":"570.018","TIME_SYSTEM":"UTC","EPOCH":"2022-06-21T19:55:17.247072","MEAN_ANOMALY":"89.7473","RCS_SIZE":"LARGE","OBJECT_TYPE":"PAYLOAD","RA_OF_ASC_NODE":"115.5678","INCLINATION":"69.9990","SEMIMAJOR_AXIS":"6950.135","NORAD_CAT_ID":"49132","PERIOD":"96.106","ELEMENT_SET_NO":"999","MEAN_MOTION":"14.98348590","TLE_LINE2":"2 49132  69.9990 115.5678 0002852 270.3359  89.7473 14.98348590 42737","LAUNCH_DATE":"2021-09-14","FILE":"3499203","OBJECT_ID":"2021-082C","ECCENTRICITY":"0.00028520","TLE_LINE1":"1 49132U 21082C   22172.83006073 -.00002858  00000-0 -23171-3 0  9995","CLASSIFICATION_TYPE":"U"},{"CLASSIFICATION_TYPE":"U","TLE_LINE1":"1 49133U 21082D   22172.55826395  .00000742  00000-0  70007-4 0  9991","ECCENTRICITY":"0.00027930","OBJECT_ID":"2021-082D","LAUNCH_DATE":"2021-09-14","FILE":"3499172","TLE_LINE2":"2 49133  69.9990 116.2638 0002793 263.6959  96.3882 14.98327512 42691","MEAN_MOTION":"14.98327512","PERIOD":"96.107","ELEMENT_SET_NO":"999","OBJECT_TYPE":"PAYLOAD","RCS_SIZE":"LARGE","RA_OF_ASC_NODE":"116.2638","INCLINATION":"69.9990","NORAD_CAT_ID":"49133","SEMIMAJOR_AXIS":"6950.201","EPOCH":"2022-06-21T13:23:54.005280","MEAN_ANOMALY":"96.3882","TIME_SYSTEM":"UTC","OBJECT_NAME":"STARLINK-3077","BSTAR":"0.00007000700000","APOAPSIS":"574.007","DECAY_DATE":null,"PERIAPSIS":"570.124","SITE":"AFWTR","COUNTRY_CODE":"US","ARG_OF_PERICENTER":"263.6959","MEAN_ELEMENT_THEORY":"SGP4","EPHEMERIS_TYPE":"0","MEAN_MOTION_DOT":"0.00000742","REV_AT_EPOCH":"4269","MEAN_MOTION_DDOT":"0.0000000000000","REF_FRAME":"TEME","CENTER_NAME":"EARTH","GP_ID":"206559055"},{"REV_AT_EPOCH":"4394","MEAN_MOTION_DOT":"0.00000092","MEAN_MOTION_DDOT":"0.0000000000000","REF_FRAME":"TEME","CENTER_NAME":"EARTH","GP_ID":"206583544","SITE":"AFWTR","COUNTRY_CODE":"US","ARG_OF_PERICENTER":"278.6969","MEAN_ELEMENT_THEORY":"SGP4","EPHEMERIS_TYPE":"0","TIME_SYSTEM":"UTC","OBJECT_NAME":"STARLINK-3078","BSTAR":"0.00001549400000","PERIAPSIS":"570.001","DECAY_DATE":null,"APOAPSIS":"574.113","OBJECT_TYPE":"PAYLOAD","RCS_SIZE":"LARGE","INCLINATION":"69.9995","RA_OF_ASC_NODE":"115.4274","SEMIMAJOR_AXIS":"6950.192","NORAD_CAT_ID":"49134","EPOCH":"2022-06-21T21:17:42.272448","MEAN_ANOMALY":"81.3855","MEAN_MOTION":"14.98330268","TLE_LINE2":"2 49134  69.9995 115.4274 0002958 278.6969  81.3855 14.98330268 43949","PERIOD":"96.107","ELEMENT_SET_NO":"999","ECCENTRICITY":"0.00029580","OBJECT_ID":"2021-082E","LAUNCH_DATE":"2021-09-14","FILE":"3499203","CLASSIFICATION_TYPE":"U","TLE_LINE1":"1 49134U 21082E   22172.88729482  .00000092  00000-0  15494-4 0  9994"}];
